norad_id,name,regime,epoch,line1,line2,inclination,eccentricity,mean_motion,raan,arg_pericenter,mean_anomaly
26566,COSMOS 2374 (GLONASS),NSO,15062.66573772,1 26566U 00063C   15062.66573772  .00000041  00000-0  00000+0 0  3438\,2 26566 064.8049 093.3219 0063552 217.3784 237.5636 02.13100238111946,64.8049,0.0063552,2.13100238,93.3219,217.3784,237.5636
26566,COSMOS 2374 (GLONASS),NSO,15066.35031865,1 26566U 00063C   15066.35031865  .00000035  00000-0  00000+0 0  3444\,2 26566 064.8064 093.1958 0063553 217.4002 184.1996 02.13100226112029,64.8064,0.0063553,2.13100226,93.1958,217.4002,184.1996
26566,COSMOS 2374 (GLONASS),NSO,15069.23293080,1 26566U 00063C   15069.23293080  .00000036  00000-0  00000+0 0  3455\,2 26566 064.8075 093.0972 0063570 217.4118 235.6089 02.13100191112085,64.8075,0.006357,2.13100191,93.0972,217.4118,235.6089
26566,COSMOS 2374 (GLONASS),NSO,15072.66249583,1 26566U 00063C   15072.66249583  .00000057  00000-0  00000+0 0  3469\,2 26566 064.8091 092.9800 0063528 217.4694 346.5706 02.13100142112155,64.8091,0.0063528,2.13100142,92.98,217.4694,346.5706
26566,COSMOS 2374 (GLONASS),NSO,15074.94380219,1 26566U 00063C   15074.94380219  .00000072  00000-0  00000+0 0  3472\,2 26566 064.8101 092.9020 0063546 217.4761 296.6871 02.13100100112204,64.8101,0.0063546,2.131001,92.902,217.4761,296.6871
26566,COSMOS 2374 (GLONASS),NSO,15080.20984778,1 26566U 00063C   15080.20984778  .00000037  00000-0  00000+0 0  3480\,2 26566 064.8124 092.7217 0063530 217.5157 016.5384 02.13100087112312,64.8124,0.006353,2.13100087,92.7217,217.5157,16.5384
26566,COSMOS 2374 (GLONASS),NSO,15082.50733722,1 26566U 00063C   15082.50733722  .00000017  00000-0  00000+0 0  3495\,2 26566 064.8134 092.6430 0063521 217.5265 339.0659 02.13100117112366,64.8134,0.0063521,2.13100117,92.643,217.5265,339.0659
26566,COSMOS 2374 (GLONASS),NSO,15085.17074932,1 26566U 00063C   15085.17074932  .00000026  00000-0  00000+0 0  3504\,2 26566 064.8146 092.5519 0063512 217.5336 222.3178 02.13100165112425,64.8146,0.0063512,2.13100165,92.5519,217.5336,222.3178
26566,COSMOS 2374 (GLONASS),NSO,15087.57885769,1 26566U 00063C   15087.57885769  .00000048  00000-0  00000+0 0  3513\,2 26566 064.8156 092.4696 0063501 217.5563 269.6955 02.13100207112470,64.8156,0.0063501,2.13100207,92.4696,217.5563,269.6955
26566,COSMOS 2374 (GLONASS),NSO,15091.28681388,1 26566U 00063C   15091.28681388  .00000056  00000-0  00000+0 0  3527\,2 26566 064.8172 092.3428 0063493 217.5703 234.2717 02.13100233112558,64.8172,0.0063493,2.13100233,92.3428,217.5703,234.2717
26566,COSMOS 2374 (GLONASS),NSO,15096.58378030,1 26566U 00063C   15096.58378030  .00000046  00000-0  00000+0 0  3532\,2 26566 064.8194 092.1619 0063490 217.5755 337.8788 02.13100168112663,64.8194,0.006349,2.13100168,92.1619,217.5755,337.8788
26566,COSMOS 2374 (GLONASS),NSO,15098.94682302,1 26566U 00063C   15098.94682302  .00000057  00000-0  00000+0 0  3547\,2 26566 064.8204 092.0812 0063483 217.5816 350.7006 02.13100128112718,64.8204,0.0063483,2.13100128,92.0812,217.5816,350.7006
26566,COSMOS 2374 (GLONASS),NSO,15101.23831637,1 26566U 00063C   15101.23831637  .00000072  00000-0  00000+0 0  3559\,2 26566 064.8213 092.0028 0063487 217.5780 308.6422 02.13100084112761,64.8213,0.0063487,2.13100084,92.0028,217.578,308.6422
26566,COSMOS 2374 (GLONASS),NSO,15104.02121322,1 26566U 00063C   15104.02121322  .00000074  00000-0  00000+0 0  3565\,2 26566 064.8225 091.9077 0063508 217.5811 283.5613 02.13100053112821,64.8225,0.0063508,2.13100053,91.9077,217.5811,283.5613
26566,COSMOS 2374 (GLONASS),NSO,15106.32539600,1 26566U 00063C   15106.32539600  .00000051  00000-0  00000+0 0  3578\,2 26566 064.8234 091.8289 0063520 217.5922 251.2230 02.13100053112874,64.8234,0.006352,2.13100053,91.8289,217.5922,251.223
26566,COSMOS 2374 (GLONASS),NSO,15110.03651045,1 26566U 00063C   15110.03651045  .00000012  00000-0  00000+0 0  3587\,2 26566 064.8249 091.7020 0063493 217.5909 218.2362 02.13100090112955,64.8249,0.0063493,2.1310009,91.702,217.5909,218.2362
26566,COSMOS 2374 (GLONASS),NSO,15112.43764316,1 26566U 00063C   15112.43764316  .00000018  00000-0  00000+0 0  3596\,2 26566 064.8259 091.6200 0063442 217.5714 260.3041 02.13100126113002,64.8259,0.0063442,2.13100126,91.62,217.5714,260.3041
26566,COSMOS 2374 (GLONASS),NSO,15115.19823519,1 26566U 00063C   15115.19823519  .00000039  00000-0  00000+0 0  3608\,2 26566 064.8270 091.5257 0063422 217.5767 218.1094 02.13100175113061,64.827,0.0063422,2.13100175,91.5257,217.5767,218.1094
26566,COSMOS 2374 (GLONASS),NSO,15117.66180215,1 26566U 00063C   15117.66180215  .00000043  00000-0  00000+0 0  3617\,2 26566 064.8279 091.4415 0063416 217.5790 308.0530 02.13100195113116,64.8279,0.0063416,2.13100195,91.4415,217.579,308.053
26566,COSMOS 2374 (GLONASS),NSO,15120.39356063,1 26566U 00063C   15120.39356063  .00000031  00000-0  00000+0 0  3625\,2 26566 064.8289 091.3483 0063410 217.5603 243.7630 02.13100185113179,64.8289,0.006341,2.13100185,91.3483,217.5603,243.763
26566,COSMOS 2374 (GLONASS),NSO,15123.23207955,1 26566U 00063C   15123.23207955  .00000023  00000-0  00000+0 0  3638\,2 26566 064.8299 091.2514 0063410 217.5468 261.3696 02.13100148113237,64.8299,0.006341,2.13100148,91.2514,217.5468,261.3696
26566,COSMOS 2374 (GLONASS),NSO,15125.56618817,1 26566U 00063C   15125.56618817  .00000030  00000-0  00000+0 0  3648\,2 26566 064.8307 091.1717 0063396 217.5339 252.0129 02.13100102113284,64.8307,0.0063396,2.13100102,91.1717,217.5339,252.0129
26566,COSMOS 2374 (GLONASS),NSO,15128.51050078,1 26566U 00063C   15128.51050078  .00000046  00000-0  00000+0 0  3653\,2 26566 064.8318 091.0711 0063371 217.5007 350.7993 02.13100048113345,64.8318,0.0063371,2.13100048,91.0711,217.5007,350.7993
26566,COSMOS 2374 (GLONASS),NSO,15131.22823096,1 26566U 00063C   15131.22823096  .00000047  00000-0  00000+0 0  3665\,2 26566 064.8327 090.9782 0063367 217.4938 275.7348 02.13100016113400,64.8327,0.0063367,2.13100016,90.9782,217.4938,275.7348
26566,COSMOS 2374 (GLONASS),NSO,15133.56751608,1 26566U 00063C   15133.56751608  .00000023  00000-0  00000+0 0  3678\,2 26566 064.8335 090.8982 0063355 217.4893 270.3407 02.13100007113459,64.8335,0.0063355,2.13100007,90.8982,217.4893,270.3407
26566,COSMOS 2374 (GLONASS),NSO,15136.85677014,1 26566U 00063C   15136.85677014 -.00000016  00000-0  00000+0 0  3685\,2 26566 064.8346 090.7858 0063335 217.4462 273.7616 02.13100032113527,64.8346,0.0063335,2.13100032,90.7858,217.4462,273.7616
26566,COSMOS 2374 (GLONASS),NSO,15139.12595002,1 26566U 00063C   15139.12595002 -.00000017  00000-0  00000+0 0  3696\,2 26566 064.8354 090.7083 0063366 217.4683 214.5596 02.13100083113576,64.8354,0.0063366,2.13100083,90.7083,217.4683,214.5596
26566,COSMOS 2374 (GLONASS),NSO,15141.37777060,1 26566U 00063C   15141.37777060 -.00000120  00000-0  10000-3 0  3715\,2 26566 064.8361 090.6313 0063312 217.4930 142.0432 02.13099213113616,64.8361,0.0063312,2.13099213,90.6313,217.493,142.0432
26566,COSMOS 2374 (GLONASS),NSO,15141.69536608,1 26566U 00063C   15141.69536608  .00000001  00000-0  00000+0 0  3724\,2 26566 064.8363 090.6205 0063347 217.4631 025.7130 02.13100129113626,64.8363,0.0063347,2.13100129,90.6205,217.4631,25.713
26566,COSMOS 2374 (GLONASS),NSO,15143.95899420,1 26566U 00063C   15143.95899420  .00000009  00000-0  00000+0 0  3738\,2 26566 064.8370 090.5432 0063355 217.4650 322.2717 02.13100160113671,64.837,0.0063355,2.1310016,90.5432,217.465,322.2717
26566,COSMOS 2374 (GLONASS),NSO,15146.23437183,1 26566U 00063C   15146.23437183  .00000002  00000-0  00000+0 0  3740\,2 26566 064.8377 090.4655 0063334 217.4244 267.8868 02.13100168113725,64.8377,0.0063334,2.13100168,90.4655,217.4244,267.8868
26566,COSMOS 2374 (GLONASS),NSO,15149.51840098,1 26566U 00063C   15149.51840098 -.00000012  00000-0  00000+0 0  3750\,2 26566 064.8387 090.3533 0063326 217.3839 267.2973 02.13100144113792,64.8387,0.0063326,2.13100144,90.3533,217.3839,267.2973
26566,COSMOS 2374 (GLONASS),NSO,15152.09628718,1 26566U 00063C   15152.09628718 -.00000009  00000-0  00000+0 0  3767\,2 26566 064.8395 090.2653 0063330 217.3666 084.9609 02.13100104113848,64.8395,0.006333,2.13100104,90.2653,217.3666,84.9609
26566,COSMOS 2374 (GLONASS),NSO,15154.28835816,1 26566U 00063C   15154.28835816  .00000003  00000-0  00000+0 0  3773\,2 26566 064.8402 090.1904 0063326 217.3589 326.6334 02.13100067113898,64.8402,0.0063326,2.13100067,90.1904,217.3589,326.6334
26566,COSMOS 2374 (GLONASS),NSO,15156.55395639,1 26566U 00063C   15156.55395639  .00000015  00000-0  00000+0 0  3783\,2 26566 064.8409 090.1130 0063317 217.3330 264.7313 02.13100030113945,64.8409,0.0063317,2.1310003,90.113,217.333,264.7313
26566,COSMOS 2374 (GLONASS),NSO,15159.44964854,1 26566U 00063C   15159.44964854  .00000007  00000-0  00000+0 0  3797\,2 26566 064.8418 090.0139 0063306 217.3117 326.2059 02.13099996114001,64.8418,0.0063306,2.13099996,90.0139,217.3117,326.2059
26566,COSMOS 2374 (GLONASS),NSO,15160.81547302,1 26566U 00063C   15160.81547302 -.00000008 +00000-0 +00000-0 0 0001\,2 26566 064.8423 089.9672 0063304 217.3177 294.0032 02.1309999711398,64.8423,0.0063304,2.13099997,89.9672,217.3177,294.0032
26566,COSMOS 2374 (GLONASS),NSO,15161.80713925,1 26566U 00063C   15161.80713925 -.00000022  00000-0  00000+0 0  3801\,2 26566 064.8426 089.9333 0063298 217.3094 334.7761 02.13100002114057,64.8426,0.0063298,2.13100002,89.9333,217.3094,334.7761
26566,COSMOS 2374 (GLONASS),NSO,15162.74773161,1 26566U 00063C   15162.74773161 -.00000034 +00000-0 +00000-0 0 0001\,2 26566 064.8429 089.9012 0063291 217.2981 336.3703 02.1310000811402,64.8429,0.0063291,2.13100008,89.9012,217.2981,336.3703
26566,COSMOS 2374 (GLONASS),NSO,15164.53313571,1 26566U 00063C   15164.53313571 -.00000048  00000-0  00000+0 0  3816\,2 26566 064.8434 089.8402 0063277 217.2745 266.0810 02.13100028114118,64.8434,0.0063277,2.13100028,89.8402,217.2745,266.081
